LEMUR-2-MJR092620       
1 58340U 23174CN  26117.21803138  .00013740  00000+0  31008-3 0  9999
2 58340  97.3963 206.3836 0005084 307.8766  52.2021 15.43325896137785
LEMUR-2-NIMBUS2000      
1 58899U 24022A   26117.10871642  .00017006  00000+0  45056-3 0  9991
2 58899  97.4172 326.5182 0007607 306.7829  53.2718 15.38389855124416
LEMUR-2-VALHALLA        
1 58900U 24022B   26117.09562753  .00016393  00000+0  43798-3 0  9991
2 58900  97.4171 326.5190 0008061 301.0155  59.0297 15.38135973124418
LEMUR-2-OBA-NI-JESU     
1 58902U 24022D   26117.12572445  .00218269  00000+0  12489-2 0  9994
2 58902  97.3946 338.0852 0003628 207.2762 152.8315 15.78230799125204
LEMUR-2-CAEL            
1 58903U 24022E   26117.08161459  .00017476  00000+0  44916-3 0  9997
2 58903  97.4156 327.3552 0006290 280.8991  79.1546 15.39329129124474
LEMUR-2-JOHNNYTRUONG    
1 59146U 24043BA  26116.97910391  .00036941  00000+0  51616-3 0  9997
2 59146  97.5330 265.6775 0003746  17.3842 342.7541 15.56764931120069
LEMUR-2-TOMATOKECHUP    
1 60471U 24149D   26117.21090254  .00013640  00000+0  40419-3 0  9992
2 60471  97.3800 199.1706 0003060  80.7792 279.3798 15.34967005 94347
LEMUR-2-STELLA          
1 60533U 24149BT  26117.16387345  .00015382  00000+0  93182-3 0  9995
2 60533  97.6739 199.4434 0001582 130.7703 229.3664 15.10680086 92795
LEMUR-2-MARHISYAM       
1 60536U 24149BW  26117.19280583  .00014353  00000+0  88189-3 0  9995
2 60536  97.6873 199.8672 0000534 302.1479  57.9698 15.10181212 92784
LEMUR-2-AHMED-ASRAR     
1 60576U 24149DN  26117.20797668  .00014352  00000+0  84940-3 0  9998
2 60576  97.6995 201.7843 0003117 147.4837 212.6585 15.11540232 92860
LEMUR-2-LLOYD           
1 60577U 24149DP  26117.30520522  .00013544  00000+0  87760-3 0  9998
2 60577  97.6748 198.4479 0002734 337.6906  22.4203 15.08242283 92728
LEMUR-2-SQUIRRELCOMM    
1 60578U 24149DQ  26117.18946188  .00007392  00000+0  50378-3 0  9994
2 60578  97.6705 198.2861 0005000 211.2046 148.8885 15.06540746 92728
LEMUR-2-SIERRINI        
1 60579U 24149DR  26117.20555847  .00013820  00000+0  85656-3 0  9996
2 60579  97.6839 199.6190 0004583  10.9834 349.1494 15.09864155 92763
LEMUR-2-WILSON          
1 62694U 25009CP  26117.22897826  .00003380  00000+0  31477-3 0  9992
2 62694  97.7027 196.5956 0003180 177.3624 182.7614 14.94937355 69749
LEMUR-2-STAR-FOX        
1 62696U 25009CR  26116.46588515  .00008585  00000+0  66382-3 0  9996
2 62696  97.6923 198.5042 0001292  89.1450 270.9923 15.01738099 69793
LEMUR-2-ARIANNA         
1 62699U 25009CU  26117.19562332  .00010203  00000+0  78952-3 0  9995
2 62699  97.6844 199.0450 0000941  50.1574 309.9733 15.01658872 69907
